{
  "links" : {
    "next" : "https://api.nasa.gov/neo/rest/v1/feed?start_date=1997-03-23&end_date=1997-03-23&detailed=true&api_key=t0TVs3DtDT2H8Oy2Zy8m2eVrNsAVKAexjcZXUckd",
    "prev" : "https://api.nasa.gov/neo/rest/v1/feed?start_date=1997-03-21&end_date=1997-03-21&detailed=true&api_key=t0TVs3DtDT2H8Oy2Zy8m2eVrNsAVKAexjcZXUckd",
    "self" : "https://api.nasa.gov/neo/rest/v1/feed?start_date=1997-03-22&end_date=1997-03-22&detailed=true&api_key=t0TVs3DtDT2H8Oy2Zy8m2eVrNsAVKAexjcZXUckd"
  },
  "element_count" : 7,
  "near_earth_objects" : {
    "1997-03-22" : [ {
      "links" : {
        "self" : "https://api.nasa.gov/neo/rest/v1/neo/2004341?api_key=t0TVs3DtDT2H8Oy2Zy8m2eVrNsAVKAexjcZXUckd"
      },
      "neo_reference_id" : "2004341",
      "name" : "4341 Poseidon (1987 KF)",
      "nasa_jpl_url" : "http://ssd.jpl.nasa.gov/sbdb.cgi?sstr=2004341",
      "absolute_magnitude_h" : 16.0,
      "estimated_diameter" : {
        "kilometers" : {
          "estimated_diameter_min" : 1.6770846216,
          "estimated_diameter_max" : 3.750075218
        },
        "meters" : {
          "estimated_diameter_min" : 1677.0846216284,
          "estimated_diameter_max" : 3750.0752179805
        },
        "miles" : {
          "estimated_diameter_min" : 1.0420917484,
          "estimated_diameter_max" : 2.3301879883
        },
        "feet" : {
          "estimated_diameter_min" : 5502.2463100232,
          "estimated_diameter_max" : 12303.3967781592
        }
      },
      "is_potentially_hazardous_asteroid" : false,
      "close_approach_data" : [ {
        "close_approach_date" : "1997-03-22",
        "epoch_date_close_approach" : 859017600000,
        "relative_velocity" : {
          "kilometers_per_second" : "15.0545527147",
          "kilometers_per_hour" : "54196.3897727933",
          "miles_per_hour" : "33675.5289674337"
        },
        "miss_distance" : {
          "astronomical" : "0.3230150242",
          "lunar" : "125.65284729",
          "kilometers" : "48322360",
          "miles" : "30026124"
        },
        "orbiting_body" : "Earth"
      } ],
      "orbital_data" : {
        "orbit_id" : "109",
        "orbit_determination_date" : "2017-07-26 06:20:20",
        "orbit_uncertainty" : "0",
        "minimum_orbit_intersection" : ".194106",
        "jupiter_tisserand_invariant" : "3.688",
        "epoch_osculation" : "2458000.5",
        "eccentricity" : ".6795019825131644",
        "semi_major_axis" : "1.834984166892108",
        "inclination" : "11.85163014939953",
        "ascending_node_longitude" : "108.1076150871461",
        "orbital_period" : "907.9185905975647",
        "perihelion_distance" : ".5881087876086534",
        "perihelion_argument" : "15.65158253073509",
        "aphelion_distance" : "3.081859546175563",
        "perihelion_time" : "2457765.471113053033",
        "mean_anomaly" : "93.1916145094243",
        "mean_motion" : ".3965113213102717",
        "equinox" : "J2000"
      }
    }, {
      "links" : {
        "self" : "https://api.nasa.gov/neo/rest/v1/neo/2085953?api_key=t0TVs3DtDT2H8Oy2Zy8m2eVrNsAVKAexjcZXUckd"
      },
      "neo_reference_id" : "2085953",
      "name" : "85953 (1999 FK21)",
      "nasa_jpl_url" : "http://ssd.jpl.nasa.gov/sbdb.cgi?sstr=2085953",
      "absolute_magnitude_h" : 18.1,
      "estimated_diameter" : {
        "kilometers" : {
          "estimated_diameter_min" : 0.6376097899,
          "estimated_diameter_max" : 1.4257388333
        },
        "meters" : {
          "estimated_diameter_min" : 637.6097898754,
          "estimated_diameter_max" : 1425.7388332807
        },
        "miles" : {
          "estimated_diameter_min" : 0.3961922327,
          "estimated_diameter_max" : 0.8859127646
        },
        "feet" : {
          "estimated_diameter_min" : 2091.8957030147,
          "estimated_diameter_max" : 4677.6209937807
        }
      },
      "is_potentially_hazardous_asteroid" : false,
      "close_approach_data" : [ {
        "close_approach_date" : "1997-03-22",
        "epoch_date_close_approach" : 859017600000,
        "relative_velocity" : {
          "kilometers_per_second" : "16.1254206794",
          "kilometers_per_hour" : "58051.5144458371",
          "miles_per_hour" : "36070.9535177481"
        },
        "miss_distance" : {
          "astronomical" : "0.2486899147",
          "lunar" : "96.7403793335",
          "kilometers" : "37203484",
          "miles" : "23117172"
        },
        "orbiting_body" : "Earth"
      } ],
      "orbital_data" : {
        "orbit_id" : "164",
        "orbit_determination_date" : "2017-04-06 09:28:33",
        "orbit_uncertainty" : "0",
        "minimum_orbit_intersection" : ".0708098",
        "jupiter_tisserand_invariant" : "7.566",
        "epoch_osculation" : "2455462.5",
        "eccentricity" : ".7031801310115856",
        "semi_major_axis" : ".7387604452344344",
        "inclination" : "12.60267204938441",
        "ascending_node_longitude" : "180.536574669899",
        "orbital_period" : "231.9283714153592",
        "perihelion_distance" : ".2192787785683075",
        "perihelion_argument" : "172.3365178403673",
        "aphelion_distance" : "1.258242111900561",
        "perihelion_time" : "2455499.460890244319",
        "mean_anomaly" : "302.629181558278",
        "mean_motion" : "1.552203371252403",
        "equinox" : "J2000"
      }
    }, {
      "links" : {
        "self" : "https://api.nasa.gov/neo/rest/v1/neo/3389197?api_key=t0TVs3DtDT2H8Oy2Zy8m2eVrNsAVKAexjcZXUckd"
      },
      "neo_reference_id" : "3389197",
      "name" : "(2007 UY1)",
      "nasa_jpl_url" : "http://ssd.jpl.nasa.gov/sbdb.cgi?sstr=3389197",
      "absolute_magnitude_h" : 22.9,
      "estimated_diameter" : {
        "kilometers" : {
          "estimated_diameter_min" : 0.0699125232,
          "estimated_diameter_max" : 0.1563291544
        },
        "meters" : {
          "estimated_diameter_min" : 69.9125232246,
          "estimated_diameter_max" : 156.3291544087
        },
        "miles" : {
          "estimated_diameter_min" : 0.0434416145,
          "estimated_diameter_max" : 0.097138403
        },
        "feet" : {
          "estimated_diameter_min" : 229.3718026961,
          "estimated_diameter_max" : 512.8909429502
        }
      },
      "is_potentially_hazardous_asteroid" : false,
      "close_approach_data" : [ {
        "close_approach_date" : "1997-03-22",
        "epoch_date_close_approach" : 859017600000,
        "relative_velocity" : {
          "kilometers_per_second" : "3.7902605404",
          "kilometers_per_hour" : "13644.9379454118",
          "miles_per_hour" : "8478.4338028033"
        },
        "miss_distance" : {
          "astronomical" : "0.154850661",
          "lunar" : "60.236907959",
          "kilometers" : "23165330",
          "miles" : "14394268"
        },
        "orbiting_body" : "Earth"
      } ],
      "orbital_data" : {
        "orbit_id" : "32",
        "orbit_determination_date" : "2017-04-06 09:05:35",
        "orbit_uncertainty" : "3",
        "minimum_orbit_intersection" : ".00537336",
        "jupiter_tisserand_invariant" : "6.313",
        "epoch_osculation" : "2458000.5",
        "eccentricity" : ".1752928902028106",
        "semi_major_axis" : ".9511032267794299",
        "inclination" : "1.019412355722657",
        "ascending_node_longitude" : "337.8257861621472",
        "orbital_period" : "338.7972757322603",
        "perihelion_distance" : ".7843815932760445",
        "perihelion_argument" : "273.5486544982722",
        "aphelion_distance" : "1.117824860282815",
        "perihelion_time" : "2458010.033930529125",
        "mean_anomaly" : "349.8694138461806",
        "mean_motion" : "1.06258233399874",
        "equinox" : "J2000"
      }
    } ]
  }
}